COSMOS 2251 DEB         
1 33999U 93036GJ  17345.67299007  .00000663  00000-0  16289-3 0  9998
2 33999  73.9391  75.5210 0076721 269.4876  89.7493 14.52753641466196
